INMARSAT 4-F3           
1 33278U 08039A   26161.24925492 -.00000126  00000+0  00000+0 0  9994
2 33278   4.2871  31.6013 0002769  49.4019 169.3302  1.00273121 46474
NIMIQ 4                 
1 33373U 08044A   26161.53754891 -.00000203  00000+0  00000+0 0  9997
2 33373   0.0218 300.7457 0002001 142.5586 287.0989  1.00269705 64915
GALAXY 19 (G-19)        
1 33376U 08045A   26161.53460223 -.00000122  00000+0  00000+0 0  9994
2 33376   0.0126 277.9937 0002644 161.3876 274.9798  1.00270927 64830
ASTRA 1M                
1 33436U 08057A   26161.55768463  .00000138  00000+0  00000+0 0  9999
2 33436   0.2783  82.3537 0004680  19.9822  16.7343  1.00268998 45677
EUTELSAT HOTBIRD 13C    
1 33459U 08065A   26161.54387561 -.00000266  00000+0  00000+0 0  9991
2 33459   2.9323  79.2682 0003578   2.5160 322.6064  1.00269958 47279
EXPRESS-AM44            
1 33595U 09007A   26161.19519135 -.00000072  00000+0  00000+0 0  9999
2 33595   3.4445  78.4819 0004223 355.6939 243.6566  1.00271669 52219
NSS-9                   
1 33749U 09008A   26161.51874216  .00000089  00000+0  00000+0 0  9998
2 33749   1.2436  82.7204 0002033 345.6475 200.3225  1.00271883 63451
TELSTAR 11N             
1 34111U 09009A   26161.26115958 -.00000233  00000+0  00000+0 0  9998
2 34111   0.0193   8.9951 0002383  64.7753 241.3244  1.00274399 46178
WGS F2 (USA 204)        
1 34713U 09017A   26161.45114192  .00000085  00000+0  00000+0 0  9999
2 34713   0.0172 341.4550 0000459 262.8601 234.4288  1.00271523 45556
SES-7 (PROTOSTAR 2)     
1 34941U 09027A   26161.50400119 -.00000328  00000+0  00000+0 0  9997
2 34941   0.0454  73.3195 0000818  97.5367  17.7327  1.00272210 62569
MEASAT-3A               
1 35362U 09032A   26161.46503130 -.00000093  00000+0  00000+0 0  9992
2 35362   0.0254  13.1933 0002948  63.0728 149.9755  1.00271470  7965
GOES 14                 
1 35491U 09033A   26161.51139569 -.00000247  00000+0  00000+0 0  9994
2 35491   1.6718  83.1232 0001849   6.6396 138.8739  1.00113185  6520
FM-5                    
1 35493U 09034A   26161.53676891 -.00000183  00000+0  00000+0 0  9992
2 35493   0.0165 294.4785 0000650 355.8501  75.6595  1.00270546 46579
TERRESTAR-1             
1 35496U 09035A   26161.44836416 -.00000042  00000+0  00000+0 0  9991
2 35496   5.1785  48.7967 0002588  28.6350 231.7779  1.00270569 62063
JCSAT-12 (JCSAT-RA)     
1 35755U 09044A   26161.36608115 -.00000310  00000+0  00000+0 0  9991
2 35755   0.0105 348.9385 0000213 169.4450   4.1691  1.00270178 61541
OPTUS D3                
1 35756U 09044B   26161.51338903 -.00000128  00000+0  00000+0 0  9991
2 35756   0.8652 269.4959 0002943 173.9844 156.3512  1.00269691 61494
NIMIQ 5                 
1 35873U 09050A   26161.53936892 -.00000239  00000+0  00000+0 0  9994
2 35873   0.0293 278.0990 0002840 157.2986 304.9820  1.00271187 61278
AMAZONAS 2              
1 35942U 09054A   26161.53954226 -.00000242  00000+0  00000+0 0  9990
2 35942   1.7975  83.1347 0003315 352.9099 305.1092  1.00271117 61118
COMSATBW-1              
1 35943U 09054B   26161.62063316  .00000042  00000+0  00000+0 0  9999
2 35943   0.0645  76.9718 0002876   8.0586 100.3825  1.00271977 61245
NSS-12                  
1 36032U 09058A   26161.56513799  .00000089  00000+0  00000+0 0  9992
2 36032   0.0726  66.2536 0004700 342.7569 110.3574  1.00271183 60859
THOR 6                  
1 36033U 09058B   26161.33974110  .00000008  00000+0  00000+0 0  9997
2 36033   0.0159 253.2770 0002234 217.9664 268.9187  1.00271520 60931
INTELSAT 14 (IS-14)     
1 36097U 09064A   26161.47337883 -.00000256  00000+0  00000+0 0  9995
2 36097   0.0176 350.5521 0002723 106.7049 286.9952  1.00269815 60530
EUTELSAT 36B            
1 36101U 09065A   26161.56383799  .00000130  00000+0  00000+0 0  9999
2 36101   0.4735  81.0244 0005940 357.2620  74.1014  1.00271357 60643
INTELSAT 15 (IS-15)     
1 36106U 09067A   26161.49940784 -.00000167  00000+0  00000+0 0  9992
2 36106   0.0165 355.9709 0002184  87.9052  79.9203  1.00270726 41161
WGS F3 (USA 211)        
1 36108U 09068A   26161.52810220  .00000081  00000+0  00000+0 0  9994
2 36108   0.3323  85.8734 0000349 343.6667 249.4914  1.00273170 46528
DIRECTV 12              
1 36131U 09075A   26161.46219877 -.00000086  00000+0  00000+0 0  9998
2 36131   0.0318 158.8061 0000301 239.6820 284.0043  1.00272017 46484
BEIDOU-2 G1             
1 36287U 10001A   26161.65287648 -.00000264  00000+0  00000+0 0  9991
2 36287   4.2770  60.4270 0002528 304.9638 269.1293  1.00273485 60106
SDO                     
1 36395U 10005A   26160.45717389 -.00000063  00000+0  00000+0 0  9999
2 36395  34.6348  86.4608 0001571  53.7612 180.1782  1.00270666 59982
INTELSAT 16 (IS-16)     
1 36397U 10006A   26161.32483435 -.00000227  00000+0  00000+0 0  9993
2 36397   0.0079 326.9433 0002114 132.6639 199.8215  1.00269318 59586
EWS-G2 (GOES 15)        
1 36411U 10008A   26161.62089904  .00000036  00000+0  00000+0 0  9995
2 36411   1.2587  82.9656 0005438  39.9333  63.2361  1.00275702 59577
ECHOSTAR 14             
1 36499U 10010A   26161.53026888  .00000018  00000+0  00000+0 0  9996
2 36499   0.0518  90.0601 0002385   7.7483 233.0846  1.00272121 46484
