OBJECT_NAME,OBJECT_ID,EPOCH,MEAN_MOTION,ECCENTRICITY,INCLINATION,RA_OF_ASC_NODE,ARG_OF_PERICENTER,MEAN_ANOMALY,EPHEMERIS_TYPE,CLASSIFICATION_TYPE,NORAD_CAT_ID,ELEMENT_SET_NO,REV_AT_EPOCH,BSTAR,MEAN_MOTION_DOT,MEAN_MOTION_DDOT
INMARSAT 4-F3,2008-039A,2026-06-10T05:58:55.625088,1.00273121,.0002769,4.2871,31.6013,49.4019,169.3302,0,U,33278,999,4647,0,-.126E-5,0
NIMIQ 4,2008-044A,2026-06-10T12:54:04.225824,1.00269705,.00020011,0.0218,300.7457,142.5586,287.0989,0,U,33373,999,6491,0,-.203E-5,0
GALAXY 19 (G-19),2008-045A,2026-06-10T12:49:49.632672,1.00270927,.00026445,0.0126,277.9937,161.3876,274.9798,0,U,33376,999,6483,0,-.122E-5,0
ASTRA 1M,2008-057A,2026-06-10T13:23:03.952032,1.00268998,.00046801,0.2783,82.3537,19.9822,16.7343,0,U,33436,999,4567,0,.138E-5,0
EUTELSAT HOTBIRD 13C,2008-065A,2026-06-10T13:03:10.852704,1.00269958,.00035785,2.9323,79.2682,2.5160,322.6064,0,U,33459,999,4727,0,-.266E-5,0
EXPRESS-AM44,2009-007A,2026-06-10T04:41:04.532640,1.00271669,.00042236,3.4445,78.4819,355.6939,243.6566,0,U,33595,999,5221,0,-.72E-6,0
NSS-9,2009-008A,2026-06-10T12:26:59.322624,1.00271883,.00020336,1.2436,82.7204,345.6475,200.3225,0,U,33749,999,6345,0,.89E-6,0
TELSTAR 11N,2009-009A,2026-06-10T06:16:04.187712,1.00274399,.0002383,0.0193,8.9951,64.7753,241.3244,0,U,34111,999,4617,0,-.233E-5,0
WGS F2 (USA 204),2009-017A,2026-06-10T10:49:38.661888,1.00271523,.00004592,0.0172,341.4550,262.8601,234.4288,0,U,34713,999,4555,0,.85E-6,0
SES-7 (PROTOSTAR 2),2009-027A,2026-06-10T12:05:45.702816,1.00272210,.00008183,0.0454,73.3195,97.5367,17.7327,0,U,34941,999,6256,0,-.328E-5,0
MEASAT-3A,2009-032A,2026-06-10T11:09:38.704320,1.00271470,.0002948,0.0254,13.1933,63.0728,149.9755,0,U,35362,999,796,0,-.93E-6,0
GOES 14,2009-033A,2026-06-10T12:16:24.587616,1.00113185,.00018494,1.6718,83.1232,6.6396,138.8739,0,U,35491,999,652,0,-.247E-5,0
FM-5,2009-034A,2026-06-10T12:52:56.833824,1.00270546,.00006502,0.0165,294.4785,355.8501,75.6595,0,U,35493,999,4657,0,-.183E-5,0
TERRESTAR-1,2009-035A,2026-06-10T10:45:38.663424,1.00270569,.00025885,5.1785,48.7967,28.6350,231.7779,0,U,35496,999,6206,0,-.42E-6,0
JCSAT-12 (JCSAT-RA),2009-044A,2026-06-10T08:47:09.411360,1.00270178,.00002133,0.0105,348.9385,169.4450,4.1691,0,U,35755,999,6154,0,-.31E-5,0
OPTUS D3,2009-044B,2026-06-10T12:19:16.812192,1.00269691,.00029435,0.8652,269.4959,173.9844,156.3512,0,U,35756,999,6149,0,-.128E-5,0
NIMIQ 5,2009-050A,2026-06-10T12:56:41.474688,1.00271187,.000284,0.0293,278.0990,157.2986,304.9820,0,U,35873,999,6127,0,-.239E-5,0
AMAZONAS 2,2009-054A,2026-06-10T12:56:56.451264,1.00271117,.00033157,1.7975,83.1347,352.9099,305.1092,0,U,35942,999,6111,0,-.242E-5,0
COMSATBW-1,2009-054B,2026-06-10T14:53:42.705024,1.00271977,.00028768,0.0645,76.9718,8.0586,100.3825,0,U,35943,999,6124,0,.42E-6,0
NSS-12,2009-058A,2026-06-10T13:33:47.922336,1.00271183,.00047,0.0726,66.2536,342.7569,110.3574,0,U,36032,999,6085,0,.89E-6,0
THOR 6,2009-058B,2026-06-10T08:09:13.631040,1.00271520,.00022346,0.0159,253.2770,217.9664,268.9187,0,U,36033,999,6093,0,.8E-7,0
INTELSAT 14 (IS-14),2009-064A,2026-06-10T11:21:39.930912,1.00269815,.00027238,0.0176,350.5521,106.7049,286.9952,0,U,36097,999,6053,0,-.256E-5,0
EUTELSAT 36B,2009-065A,2026-06-10T13:31:55.602336,1.00271357,.00059407,0.4735,81.0244,357.2620,74.1014,0,U,36101,999,6064,0,.13E-5,0
INTELSAT 15 (IS-15),2009-067A,2026-06-10T11:59:08.837376,1.00270726,.00021849,0.0165,355.9709,87.9052,79.9203,0,U,36106,999,4116,0,-.167E-5,0
WGS F3 (USA 211),2009-068A,2026-06-10T12:40:28.030080,1.00273170,.00003499,0.3323,85.8734,343.6667,249.4914,0,U,36108,999,4652,0,.81E-6,0
DIRECTV 12,2009-075A,2026-06-10T11:05:33.973728,1.00272017,.00003017,0.0318,158.8061,239.6820,284.0043,0,U,36131,999,4648,0,-.86E-6,0
BEIDOU-2 G1,2010-001A,2026-06-10T15:40:08.527872,1.00273485,.00025281,4.2770,60.4270,304.9638,269.1293,0,U,36287,999,6010,0,-.264E-5,0
SDO,2010-005A,2026-06-09T10:58:19.824096,1.00270666,.00015715,34.6348,86.4608,53.7612,180.1782,0,U,36395,999,5998,0,-.63E-6,0
INTELSAT 16 (IS-16),2010-006A,2026-06-10T07:47:45.687840,1.00269318,.00021147,0.0079,326.9433,132.6639,199.8215,0,U,36397,999,5958,0,-.227E-5,0
EWS-G2 (GOES 15),2010-008A,2026-06-10T14:54:05.677056,1.00275702,.00054389,1.2587,82.9656,39.9333,63.2361,0,U,36411,999,5957,0,.36E-6,0
ECHOSTAR 14,2010-010A,2026-06-10T12:43:35.231232,1.00272121,.00023858,0.0518,90.0601,7.7483,233.0846,0,U,36499,999,4648,0,.18E-6,0
